ONEWEB-0387             
1 49313U 21090AL  25308.06596549  .00000064  00000+0  12537-3 0  9994
2 49313  87.9181 319.3688 0001678  83.4448 276.6876 13.20770817200108
ONEWEB-0388             
1 49314U 21090AM  25308.15615368  .00000027  00000+0  35931-4 0  9999
2 49314  87.9227 349.7536 0001719  98.2966 261.8361 13.19725755196731
ONEWEB-0389             
1 50469U 21132A   25308.04797792 -.00000004  00000+0 -42754-4 0  9997
2 50469  87.9133  50.6391 0001354  96.8391 263.2895 13.17649859188432
ONEWEB-0390             
1 50470U 21132B   25308.04966650  .00001759  00000+0  44972-2 0  9998
2 50470  87.9126  50.6436 0001795  88.2619 271.8718 13.17640896188434
ONEWEB-0391             
1 50471U 21132C   25308.05134514  .00000091  00000+0  20177-3 0  9996
2 50471  87.9131  50.6536 0001209  72.3014 287.8249 13.17651671188434
ONEWEB-0392             
1 50472U 21132D   25308.00577693 -.00000010  00000+0 -59836-4 0  9999
2 50472  87.9134  50.6118 0001386  94.0189 266.1101 13.17650760188462
ONEWEB-0393             
1 50473U 21132E   25308.05485517  .00000069  00000+0  14414-3 0  9992
2 50473  87.9137  50.6229 0001487  98.4691 261.6609 13.17647646188469
ONEWEB-0394             
1 50474U 21132F   25308.12401735  .00000064  00000+0  12977-3 0  9998
2 50474  87.9228  20.1378 0001653 100.9020 259.2298 13.18687374191934
